{"type": "FeatureCollection", "features": [ {"type": "Feature", "properties": {"norad_id": 35587, "name": "COSMOS 2251 DEB", "group": "cosmos-2251-debris", "lat": 59.04671751479997, "lon": -138.68983343093547, "alt_km": 707.1040931321031, "timestamp": "2025-12-06T20:37:56.471906+00:00", "meta": {"OBJECT_NAME": "COSMOS 2251 DEB", "OBJECT_ID": "1993-036AME", "EPOCH": "2025-12-05T13:05:34.214496", "MEAN_MOTION": 14.71476804, "ECCENTRICITY": 0.01029789, "INCLINATION": 74.0063, "RA_OF_ASC_NODE": 72.4378, "ARG_OF_PERICENTER": 261.7398, "MEAN_ANOMALY": 97.2085, "EPHEMERIS_TYPE": 0, "CLASSIFICATION_TYPE": "U", "NORAD_CAT_ID": 35587, "ELEMENT_SET_NO": 999, "REV_AT_EPOCH": 66240, "BSTAR": 0.0005712228, "MEAN_MOTION_DOT": 3.815e-05, "MEAN_MOTION_DDOT": 0}, "tle": {"line1": "1 35587U 93036AME 25339.54553489  .00003815  00000+0  57122-3 0  9990", "line2": "2 35587  74.0063  72.4378 0102978 261.7398  97.2085 14.71476804662405"}}, "geometry": {"type": "Point", "coordinates": [-138.68983343093547, 59.04671751479997]}}, {"type": "Feature", "properties": {"norad_id": 35593, "name": "COSMOS 2251 DEB", "group": "cosmos-2251-debris", "lat": 37.77352884937785, "lon": 106.25947355086625, "alt_km": 877.0173466223805, "timestamp": "2025-12-06T20:37:56.471917+00:00", "meta": {"OBJECT_NAME": "COSMOS 2251 DEB", "OBJECT_ID": "1993-036AML", "EPOCH": "2025-12-06T06:29:47.973696", "MEAN_MOTION": 14.25548393, "ECCENTRICITY": 0.01053072, "INCLINATION": 74.0859, "RA_OF_ASC_NODE": 300.0924, "ARG_OF_PERICENTER": 308.0252, "MEAN_ANOMALY": 51.1424, "EPHEMERIS_TYPE": 0, "CLASSIFICATION_TYPE": "U", "NORAD_CAT_ID": 35593, "ELEMENT_SET_NO": 999, "REV_AT_EPOCH": 84973, "BSTAR": 0.0026306785, "MEAN_MOTION_DOT": 6.575e-05, "MEAN_MOTION_DDOT": 0}, "tle": {"line1": "1 35593U 93036AML 25340.27069414  .00006575  00000+0  26307-2 0  9995", "line2": "2 35593  74.0859 300.0924 0105307 308.0252  51.1424 14.25548393849736"}}, "geometry": {"type": "Point", "coordinates": [106.25947355086625, 37.77352884937785]}}, {"type": "Feature", "properties": {"norad_id": 35594, "name": "COSMOS 2251 DEB", "group": "cosmos-2251-debris", "lat": -25.439215796004163, "lon": -53.622996024248444, "alt_km": 590.6072439821728, "timestamp": "2025-12-06T20:37:56.471928+00:00", "meta": {"OBJECT_NAME": "COSMOS 2251 DEB", "OBJECT_ID": "1993-036AMM", "EPOCH": "2025-12-01T02:30:04.449024", "MEAN_MOTION": 14.8736155, "ECCENTRICITY": 0.00313469, "INCLINATION": 73.8065, "RA_OF_ASC_NODE": 130.0573, "ARG_OF_PERICENTER": 241.1394, "MEAN_ANOMALY": 118.6638, "EPHEMERIS_TYPE": 0, "CLASSIFICATION_TYPE": "U", "NORAD_CAT_ID": 35594, "ELEMENT_SET_NO": 999, "REV_AT_EPOCH": 88012, "BSTAR": 0.00176297, "MEAN_MOTION_DOT": 0.00016075, "MEAN_MOTION_DDOT": 0}, "tle": {"line1": "1 35594U 93036AMM 25335.10421816  .00016075  00000+0  17630-2 0  9995", "line2": "2 35594  73.8065 130.0573 0031346 241.1394 118.6638 14.87361550880129"}}, "geometry": {"type": "Point", "coordinates": [-53.622996024248444, -25.439215796004163]}}, {"type": "Feature", "properties": {"norad_id": 35602, "name": "COSMOS 2251 DEB", "group": "cosmos-2251-debris", "lat": 39.956682778837475, "lon": -151.22690332541325, "alt_km": 505.4319473538708, "timestamp": "2025-12-06T20:37:56.471938+00:00", "meta": {"OBJECT_NAME": "COSMOS 2251 DEB", "OBJECT_ID": "1993-036AMV", "EPOCH": "2025-12-05T09:14:10.334112", "MEAN_MOTION": 15.34714955, "ECCENTRICITY": 0.0090692, "INCLINATION": 73.9941, "RA_OF_ASC_NODE": 198.0259, "ARG_OF_PERICENTER": 265.4665, "MEAN_ANOMALY": 270.7727, "EPHEMERIS_TYPE": 0, "CLASSIFICATION_TYPE": "U", "NORAD_CAT_ID": 35602, "ELEMENT_SET_NO": 999, "REV_AT_EPOCH": 89978, "BSTAR": 0.00072460009, "MEAN_MOTION_DOT": 0.00027961, "MEAN_MOTION_DDOT": 0}, "tle": {"line1": "1 35602U 93036AMV 25339.38484183  .00027961  00000+0  72460-3 0  9994", "line2": "2 35602  73.9941 198.0259 0090692 265.4665 270.7727 15.34714955899782"}}, "geometry": {"type": "Point", "coordinates": [-151.22690332541325, 39.956682778837475]}}, {"type": "Feature", "properties": {"norad_id": 35605, "name": "COSMOS 2251 DEB", "group": "cosmos-2251-debris", "lat": 37.21137405781645, "lon": 156.61594368007283, "alt_km": 486.6147278014432, "timestamp": "2025-12-06T20:37:56.471949+00:00", "meta": {"OBJECT_NAME": "COSMOS 2251 DEB", "OBJECT_ID": "1993-036AMY", "EPOCH": "2025-12-06T07:28:08.851584", "MEAN_MOTION": 15.30671694, "ECCENTRICITY": 0.00298182, "INCLINATION": 73.8708, "RA_OF_ASC_NODE": 350.4904, "ARG_OF_PERICENTER": 287.5561, "MEAN_ANOMALY": 72.2383, "EPHEMERIS_TYPE": 0, "CLASSIFICATION_TYPE": "U", "NORAD_CAT_ID": 35605, "ELEMENT_SET_NO": 999, "REV_AT_EPOCH": 65873, "BSTAR": 0.0096225277, "MEAN_MOTION_DOT": 0.00300684, "MEAN_MOTION_DDOT": 0}, "tle": {"line1": "1 35605U 93036AMY 25340.31121356  .00300684  00000+0  96225-2 0  9992", "line2": "2 35605  73.8708 350.4904 0029818 287.5561  72.2383 15.30671694658737"}}, "geometry": {"type": "Point", "coordinates": [156.61594368007283, 37.21137405781645]}}, {"type": "Feature", "properties": {"norad_id": 35606, "name": "COSMOS 2251 DEB", "group": "cosmos-2251-debris", "lat": -73.1901702650883, "lon": -85.76764960372007, "alt_km": 838.4233696976498, "timestamp": "2025-12-06T20:37:56.471960+00:00", "meta": {"OBJECT_NAME": "COSMOS 2251 DEB", "OBJECT_ID": "1993-036AMZ", "EPOCH": "2025-12-06T08:34:07.137120", "MEAN_MOTION": 13.41197641, "ECCENTRICITY": 0.04578135, "INCLINATION": 73.8109, "RA_OF_ASC_NODE": 20.9706, "ARG_OF_PERICENTER": 227.6256, "MEAN_ANOMALY": 128.5237, "EPHEMERIS_TYPE": 0, "CLASSIFICATION_TYPE": "U", "NORAD_CAT_ID": 35606, "ELEMENT_SET_NO": 999, "REV_AT_EPOCH": 60954, "BSTAR": 0.0018916944, "MEAN_MOTION_DOT": 1.924e-05, "MEAN_MOTION_DDOT": 0}, "tle": {"line1": "1 35606U 93036AMZ 25340.35702705  .00001924  00000+0  18917-2 0  9997", "line2": "2 35606  73.8109  20.9706 0457813 227.6256 128.5237 13.41197641609541"}}, "geometry": {"type": "Point", "coordinates": [-85.76764960372007, -73.1901702650883]}}, {"type": "Feature", "properties": {"norad_id": 35611, "name": "COSMOS 2251 DEB", "group": "cosmos-2251-debris", "lat": 51.77908872931507, "lon": -10.57864974224677, "alt_km": 659.3825319174457, "timestamp": "2025-12-06T20:37:56.471970+00:00", "meta": {"OBJECT_NAME": "COSMOS 2251 DEB", "OBJECT_ID": "1993-036ANE", "EPOCH": "2025-12-06T00:29:55.775616", "MEAN_MOTION": 14.72576947, "ECCENTRICITY": 0.00221682, "INCLINATION": 74.0182, "RA_OF_ASC_NODE": 192.3968, "ARG_OF_PERICENTER": 266.2005, "MEAN_ANOMALY": 93.6633, "EPHEMERIS_TYPE": 0, "CLASSIFICATION_TYPE": "U", "NORAD_CAT_ID": 35611, "ELEMENT_SET_NO": 999, "REV_AT_EPOCH": 87191, "BSTAR": 0.003154175, "MEAN_MOTION_DOT": 0.00020171, "MEAN_MOTION_DDOT": 0}, "tle": {"line1": "1 35611U 93036ANE 25340.02078444  .00020171  00000+0  31542-2 0  9997", "line2": "2 35611  74.0182 192.3968 0022168 266.2005  93.6633 14.72576947871916"}}, "geometry": {"type": "Point", "coordinates": [-10.57864974224677, 51.77908872931507]}}, {"type": "Feature", "properties": {"norad_id": 35614, "name": "COSMOS 2251 DEB", "group": "cosmos-2251-debris", "lat": 6.397016695808805, "lon": -19.285491150765104, "alt_km": 725.8838748443777, "timestamp": "2025-12-06T20:37:56.471981+00:00", "meta": {"OBJECT_NAME": "COSMOS 2251 DEB", "OBJECT_ID": "1993-036ANH", "EPOCH": "2025-12-05T08:35:34.166976", "MEAN_MOTION": 14.66905481, "ECCENTRICITY": 0.00762912, "INCLINATION": 73.9585, "RA_OF_ASC_NODE": 341.7759, "ARG_OF_PERICENTER": 198.0285, "MEAN_ANOMALY": 161.8178, "EPHEMERIS_TYPE": 0, "CLASSIFICATION_TYPE": "U", "NORAD_CAT_ID": 35614, "ELEMENT_SET_NO": 999, "REV_AT_EPOCH": 87621, "BSTAR": 0.0016552596, "MEAN_MOTION_DOT": 9.649e-05, "MEAN_MOTION_DDOT": 0}, "tle": {"line1": "1 35614U 93036ANH 25339.35803434  .00009649  00000+0  16553-2 0  9991", "line2": "2 35614  73.9585 341.7759 0076291 198.0285 161.8178 14.66905481876212"}}, "geometry": {"type": "Point", "coordinates": [-19.285491150765104, 6.397016695808805]}}, {"type": "Feature", "properties": {"norad_id": 35645, "name": "COSMOS 2251 DEB", "group": "cosmos-2251-debris", "lat": 0.48643833799497865, "lon": -81.395456249021, "alt_km": 732.341418329288, "timestamp": "2025-12-06T20:37:56.471991+00:00", "meta": {"OBJECT_NAME": "COSMOS 2251 DEB", "OBJECT_ID": "1993-036ANL", "EPOCH": "2025-12-06T14:48:53.385120", "MEAN_MOTION": 14.45430489, "ECCENTRICITY": 0.00694651, "INCLINATION": 73.9649, "RA_OF_ASC_NODE": 99.1981, "ARG_OF_PERICENTER": 257.6557, "MEAN_ANOMALY": 101.6818, "EPHEMERIS_TYPE": 0, "CLASSIFICATION_TYPE": "U", "NORAD_CAT_ID": 35645, "ELEMENT_SET_NO": 999, "REV_AT_EPOCH": 86683, "BSTAR": 0.0035668156, "MEAN_MOTION_DOT": 0.00012932, "MEAN_MOTION_DDOT": 0}, "tle": {"line1": "1 35645U 93036ANL 25340.61728455  .00012932  00000+0  35668-2 0  9992", "line2": "2 35645  73.9649  99.1981 0069465 257.6557 101.6818 14.45430489866835"}}, "geometry": {"type": "Point", "coordinates": [-81.395456249021, 0.48643833799497865]}}, {"type": "Feature", "properties": {"norad_id": 35646, "name": "COSMOS 2251 DEB", "group": "cosmos-2251-debris", "lat": 23.091632783871898, "lon": -121.72652850492061, "alt_km": 783.0197359424474, "timestamp": "2025-12-06T20:37:56.472002+00:00", "meta": {"OBJECT_NAME": "COSMOS 2251 DEB", "OBJECT_ID": "1993-036ANM", "EPOCH": "2025-12-04T12:27:05.030208", "MEAN_MOTION": 13.40795719, "ECCENTRICITY": 0.0457655, "INCLINATION": 73.8717, "RA_OF_ASC_NODE": 69.0727, "ARG_OF_PERICENTER": 180.5936, "MEAN_ANOMALY": 201.9959, "EPHEMERIS_TYPE": 0, "CLASSIFICATION_TYPE": "U", "NORAD_CAT_ID": 35646, "ELEMENT_SET_NO": 999, "REV_AT_EPOCH": 81748, "BSTAR": 0.0021754, "MEAN_MOTION_DOT": 2.2e-05, "MEAN_MOTION_DDOT": 0}, "tle": {"line1": "1 35646U 93036ANM 25338.51880822  .00002200  00000+0  21754-2 0  9994", "line2": "2 35646  73.8717  69.0727 0457655 180.5936 201.9959 13.40795719817483"}}, "geometry": {"type": "Point", "coordinates": [-121.72652850492061, 23.091632783871898]}}]}